PRC TEST SPACECRAFT 4   
1 67689U 26024A   26067.22050251  .00000255  00000+0  49114-4 0  9992
2 67689  49.9864  29.6681 0006081 354.6389   5.4487 14.91687004  4364
CZ-2F R/B               
1 67690U 26024B   26067.13990655  .00025066  00000+0  45581-3 0  9995
2 67690  49.9892  22.3718 0174628 268.4322  89.6629 15.34263009  4455
CZ-2F DEB               
1 67691U 26024C   26067.09996580  .01955716  11307-4  78816-3 0  9993
2 67691  49.9022  12.5693 0121144 283.5850  75.1669 16.07292822  4565
CZ-2F DEB               
1 67692U 26024D   26067.16847482  .00314499  00000+0  53886-2 0  9996
2 67692  50.3193  26.1645 0232701 273.9752  83.4638 15.25227653  4393
STARLINK-36748          
1 67693U 26025A   26067.08079707  .00158482  00000+0  10428-2 0  9999
2 67693  97.2836 178.5321 0001343  74.5334 285.6079 15.75212322  5688
STARLINK-36753          
1 67694U 26025B   26067.07303553  .00339686  00000+0  21777-2 0  9994
2 67694  97.2841 178.5426 0000848  44.0025 316.1307 15.75308260  5691
STARLINK-36750          
1 67695U 26025C   26067.03385336  .00585256  00000+0  28462-2 0  9994
2 67695  97.2821 178.5976 0002988  59.1869 300.9693 15.80892094  5687
STARLINK-36401          
1 67696U 26025D   26066.55103833  .00061444  00000+0  40930-3 0  9994
2 67696  97.2842 178.0287 0001161  58.1851 301.9527 15.75221402  5605
STARLINK-36704          
1 67697U 26025E   26066.56268375  .00111910  00000+0  74003-3 0  9991
2 67697  97.2840 178.0117 0001516  72.2911 287.8520 15.75231818  5601
STARLINK-36697          
1 67698U 26025F   26067.02739784  .00639697  00000+0  30448-2 0  9992
2 67698  97.2837 178.6068 0002996  46.7002 313.4516 15.81225090  5680
STARLINK-36716          
1 67699U 26025G   26067.04127300  .00288066  00000+0  18636-2 0  9995
2 67699  97.2841 178.5863 0002139  62.9792 297.1691 15.75241980  5695
STARLINK-36712          
1 67700U 26025H   26066.80691512  .00250465  00000+0  16332-2 0  9995
2 67700  97.2856 178.2942 0001227  90.0587 270.0819 15.75163104  5648
