CCSDS_OMM_VERS = 2.0
CREATION_DATE  = 
ORIGINATOR     = 

OBJECT_NAME    = PRC TEST SPACECRAFT 4
OBJECT_ID      = 2026-024A
CENTER_NAME    = EARTH
REF_FRAME      = TEME
TIME_SYSTEM    = UTC
MEAN_ELEMENT_THEORY = SGP/SGP4

EPOCH          = 2026-03-08T05:17:31.416864
MEAN_MOTION    = 14.91687004
ECCENTRICITY   = .0006081
INCLINATION    = 49.9864
RA_OF_ASC_NODE = 29.6681
ARG_OF_PERICENTER = 354.6389
MEAN_ANOMALY   = 5.4487

EPHEMERIS_TYPE = 0
CLASSIFICATION_TYPE = U
NORAD_CAT_ID   = 67689
ELEMENT_SET_NO = 999
REV_AT_EPOCH   = 436
BSTAR          = .49114E-4
MEAN_MOTION_DOT = .255E-5
MEAN_MOTION_DDOT = 0

CCSDS_OMM_VERS = 2.0
CREATION_DATE  = 
ORIGINATOR     = 

OBJECT_NAME    = CZ-2F R/B
OBJECT_ID      = 2026-024B
CENTER_NAME    = EARTH
REF_FRAME      = TEME
TIME_SYSTEM    = UTC
MEAN_ELEMENT_THEORY = SGP/SGP4

EPOCH          = 2026-03-08T03:21:27.925920
MEAN_MOTION    = 15.34263009
ECCENTRICITY   = .0174628
INCLINATION    = 49.9892
RA_OF_ASC_NODE = 22.3718
ARG_OF_PERICENTER = 268.4322
MEAN_ANOMALY   = 89.6629

EPHEMERIS_TYPE = 0
CLASSIFICATION_TYPE = U
NORAD_CAT_ID   = 67690
ELEMENT_SET_NO = 999
REV_AT_EPOCH   = 445
BSTAR          = .45581E-3
MEAN_MOTION_DOT = .25066E-3
MEAN_MOTION_DDOT = 0

CCSDS_OMM_VERS = 2.0
CREATION_DATE  = 
ORIGINATOR     = 

OBJECT_NAME    = CZ-2F DEB
OBJECT_ID      = 2026-024C
CENTER_NAME    = EARTH
REF_FRAME      = TEME
TIME_SYSTEM    = UTC
MEAN_ELEMENT_THEORY = SGP/SGP4

EPOCH          = 2026-03-08T02:23:57.045120
MEAN_MOTION    = 16.07292822
ECCENTRICITY   = .0121144
INCLINATION    = 49.9022
RA_OF_ASC_NODE = 12.5693
ARG_OF_PERICENTER = 283.5850
MEAN_ANOMALY   = 75.1669

EPHEMERIS_TYPE = 0
CLASSIFICATION_TYPE = U
NORAD_CAT_ID   = 67691
ELEMENT_SET_NO = 999
REV_AT_EPOCH   = 456
BSTAR          = .78816E-3
MEAN_MOTION_DOT = .1955716E-1
MEAN_MOTION_DDOT = .11307E-4

CCSDS_OMM_VERS = 2.0
CREATION_DATE  = 
ORIGINATOR     = 

OBJECT_NAME    = CZ-2F DEB
OBJECT_ID      = 2026-024D
CENTER_NAME    = EARTH
REF_FRAME      = TEME
TIME_SYSTEM    = UTC
MEAN_ELEMENT_THEORY = SGP/SGP4

EPOCH          = 2026-03-08T04:02:36.224448
MEAN_MOTION    = 15.25227653
ECCENTRICITY   = .0232701
INCLINATION    = 50.3193
RA_OF_ASC_NODE = 26.1645
ARG_OF_PERICENTER = 273.9752
MEAN_ANOMALY   = 83.4638

EPHEMERIS_TYPE = 0
CLASSIFICATION_TYPE = U
NORAD_CAT_ID   = 67692
ELEMENT_SET_NO = 999
REV_AT_EPOCH   = 439
BSTAR          = .53886E-2
MEAN_MOTION_DOT = .314499E-2
MEAN_MOTION_DDOT = 0

CCSDS_OMM_VERS = 2.0
CREATION_DATE  = 
ORIGINATOR     = 

OBJECT_NAME    = STARLINK-36748
OBJECT_ID      = 2026-025A
CENTER_NAME    = EARTH
REF_FRAME      = TEME
TIME_SYSTEM    = UTC
MEAN_ELEMENT_THEORY = SGP/SGP4

EPOCH          = 2026-03-08T01:56:20.866848
MEAN_MOTION    = 15.75212322
ECCENTRICITY   = .0001343
INCLINATION    = 97.2836
RA_OF_ASC_NODE = 178.5321
ARG_OF_PERICENTER = 74.5334
MEAN_ANOMALY   = 285.6079

EPHEMERIS_TYPE = 0
CLASSIFICATION_TYPE = U
NORAD_CAT_ID   = 67693
ELEMENT_SET_NO = 999
REV_AT_EPOCH   = 568
BSTAR          = .10428E-2
MEAN_MOTION_DOT = .158482E-2
MEAN_MOTION_DDOT = 0

CCSDS_OMM_VERS = 2.0
CREATION_DATE  = 
ORIGINATOR     = 

OBJECT_NAME    = STARLINK-36753
OBJECT_ID      = 2026-025B
CENTER_NAME    = EARTH
REF_FRAME      = TEME
TIME_SYSTEM    = UTC
MEAN_ELEMENT_THEORY = SGP/SGP4

EPOCH          = 2026-03-08T01:45:10.269792
MEAN_MOTION    = 15.75308260
ECCENTRICITY   = .0000848
INCLINATION    = 97.2841
RA_OF_ASC_NODE = 178.5426
ARG_OF_PERICENTER = 44.0025
MEAN_ANOMALY   = 316.1307

EPHEMERIS_TYPE = 0
CLASSIFICATION_TYPE = U
NORAD_CAT_ID   = 67694
ELEMENT_SET_NO = 999
REV_AT_EPOCH   = 569
BSTAR          = .21777E-2
MEAN_MOTION_DOT = .339686E-2
MEAN_MOTION_DDOT = 0

CCSDS_OMM_VERS = 2.0
CREATION_DATE  = 
ORIGINATOR     = 

OBJECT_NAME    = STARLINK-36750
OBJECT_ID      = 2026-025C
CENTER_NAME    = EARTH
REF_FRAME      = TEME
TIME_SYSTEM    = UTC
MEAN_ELEMENT_THEORY = SGP/SGP4

EPOCH          = 2026-03-08T00:48:44.930304
MEAN_MOTION    = 15.80892094
ECCENTRICITY   = .0002988
INCLINATION    = 97.2821
RA_OF_ASC_NODE = 178.5976
ARG_OF_PERICENTER = 59.1869
MEAN_ANOMALY   = 300.9693

EPHEMERIS_TYPE = 0
CLASSIFICATION_TYPE = U
NORAD_CAT_ID   = 67695
ELEMENT_SET_NO = 999
REV_AT_EPOCH   = 568
BSTAR          = .28462E-2
MEAN_MOTION_DOT = .585256E-2
MEAN_MOTION_DDOT = 0

CCSDS_OMM_VERS = 2.0
CREATION_DATE  = 
ORIGINATOR     = 

OBJECT_NAME    = STARLINK-36401
OBJECT_ID      = 2026-025D
CENTER_NAME    = EARTH
REF_FRAME      = TEME
TIME_SYSTEM    = UTC
MEAN_ELEMENT_THEORY = SGP/SGP4

EPOCH          = 2026-03-07T13:13:29.711712
MEAN_MOTION    = 15.75221402
ECCENTRICITY   = .0001161
INCLINATION    = 97.2842
RA_OF_ASC_NODE = 178.0287
ARG_OF_PERICENTER = 58.1851
MEAN_ANOMALY   = 301.9527

EPHEMERIS_TYPE = 0
CLASSIFICATION_TYPE = U
NORAD_CAT_ID   = 67696
ELEMENT_SET_NO = 999
REV_AT_EPOCH   = 560
BSTAR          = .4093E-3
MEAN_MOTION_DOT = .61444E-3
MEAN_MOTION_DDOT = 0

CCSDS_OMM_VERS = 2.0
CREATION_DATE  = 
ORIGINATOR     = 

OBJECT_NAME    = STARLINK-36704
OBJECT_ID      = 2026-025E
CENTER_NAME    = EARTH
REF_FRAME      = TEME
TIME_SYSTEM    = UTC
MEAN_ELEMENT_THEORY = SGP/SGP4

EPOCH          = 2026-03-07T13:30:15.876000
MEAN_MOTION    = 15.75231818
ECCENTRICITY   = .0001516
INCLINATION    = 97.2840
RA_OF_ASC_NODE = 178.0117
ARG_OF_PERICENTER = 72.2911
MEAN_ANOMALY   = 287.8520

EPHEMERIS_TYPE = 0
CLASSIFICATION_TYPE = U
NORAD_CAT_ID   = 67697
ELEMENT_SET_NO = 999
REV_AT_EPOCH   = 560
BSTAR          = .74003E-3
MEAN_MOTION_DOT = .11191E-2
MEAN_MOTION_DDOT = 0

CCSDS_OMM_VERS = 2.0
CREATION_DATE  = 
ORIGINATOR     = 

OBJECT_NAME    = STARLINK-36697
OBJECT_ID      = 2026-025F
CENTER_NAME    = EARTH
REF_FRAME      = TEME
TIME_SYSTEM    = UTC
MEAN_ELEMENT_THEORY = SGP/SGP4

EPOCH          = 2026-03-08T00:39:27.173376
MEAN_MOTION    = 15.81225090
ECCENTRICITY   = .0002996
INCLINATION    = 97.2837
RA_OF_ASC_NODE = 178.6068
ARG_OF_PERICENTER = 46.7002
MEAN_ANOMALY   = 313.4516

EPHEMERIS_TYPE = 0
CLASSIFICATION_TYPE = U
NORAD_CAT_ID   = 67698
ELEMENT_SET_NO = 999
REV_AT_EPOCH   = 568
BSTAR          = .30448E-2
MEAN_MOTION_DOT = .639697E-2
MEAN_MOTION_DDOT = 0

CCSDS_OMM_VERS = 2.0
CREATION_DATE  = 
ORIGINATOR     = 

OBJECT_NAME    = STARLINK-36716
OBJECT_ID      = 2026-025G
CENTER_NAME    = EARTH
REF_FRAME      = TEME
TIME_SYSTEM    = UTC
MEAN_ELEMENT_THEORY = SGP/SGP4

EPOCH          = 2026-03-08T00:59:25.987200
MEAN_MOTION    = 15.75241980
ECCENTRICITY   = .0002139
INCLINATION    = 97.2841
RA_OF_ASC_NODE = 178.5863
ARG_OF_PERICENTER = 62.9792
MEAN_ANOMALY   = 297.1691

EPHEMERIS_TYPE = 0
CLASSIFICATION_TYPE = U
NORAD_CAT_ID   = 67699
ELEMENT_SET_NO = 999
REV_AT_EPOCH   = 569
BSTAR          = .18636E-2
MEAN_MOTION_DOT = .288066E-2
MEAN_MOTION_DDOT = 0

CCSDS_OMM_VERS = 2.0
CREATION_DATE  = 
ORIGINATOR     = 

OBJECT_NAME    = STARLINK-36712
OBJECT_ID      = 2026-025H
CENTER_NAME    = EARTH
REF_FRAME      = TEME
TIME_SYSTEM    = UTC
MEAN_ELEMENT_THEORY = SGP/SGP4

EPOCH          = 2026-03-07T19:21:57.466368
MEAN_MOTION    = 15.75163104
ECCENTRICITY   = .00012275
INCLINATION    = 97.2856
RA_OF_ASC_NODE = 178.2942
ARG_OF_PERICENTER = 90.0587
MEAN_ANOMALY   = 270.0819

EPHEMERIS_TYPE = 0
CLASSIFICATION_TYPE = U
NORAD_CAT_ID   = 67700
ELEMENT_SET_NO = 999
REV_AT_EPOCH   = 564
BSTAR          = .16332093E-2
MEAN_MOTION_DOT = .250465E-2
MEAN_MOTION_DDOT = 0

